LEMUR-2-GREENBERG       
1 42837U 17042N   26200.94501542  .00009476  00000+0  30660-3 0  9991
2 42837  97.3842  21.4445 0007448 239.5677 120.4829 15.32243019493407
LEMUR-2-ANDIS           
1 42838U 17042P   26201.02642207  .00012331  00000+0  35312-3 0  9999
2 42838  97.3691  21.8287 0007452 238.1835 121.8684 15.36045973493490
LEMUR-2-EMBRIONOVIS     
1 56970U 23084AQ  26201.38398749  .00007966  00000+0  21305-3 0  9997
2 56970  97.6331 346.8847 0008723 187.4663 172.6453 15.38313202172784
LEMUR-2-DEVERILL-M-T    
1 57391U 23100F   26201.55473282  .00016616  00000+0  40191-3 0  9995
2 57391  99.4446 249.9928 0004779 274.4220  85.6474 15.41255376166381
LEMUR-2-NIMBUS2000      
1 58899U 24022A   26201.33285010  .00012813  00000+0  30980-3 0  9999
2 58899  97.4083  51.7757 0008203  10.9156 349.2267 15.41247209137378
LEMUR-2-VALHALLA        
1 58900U 24022B   26201.14500511  .00008865  00000+0  21985-3 0  9994
2 58900  97.4081  51.5501 0008700   7.0064 353.1302 15.40578281137348
LEMUR-2-CAEL            
1 58903U 24022E   26201.12620993  .00009971  00000+0  23614-3 0  9992
2 58903  97.4057  52.5269 0006635 350.9129   9.1997 15.41954913137410
LEMUR-2-JOHNNYTRUONG    
1 59146U 24043BA  26201.40465002  .00028208  00000+0  31378-3 0  9994
2 59146  97.5401 355.2329 0003767  77.9959 282.1721 15.62840820133221
LEMUR-2-TOMATOKECHUP    
1 60471U 24149D   26201.19389549  .00006224  00000+0  17624-3 0  9993
2 60471  97.3786 283.3381 0003433 112.8522 247.3085 15.36643654107237
LEMUR-2-STELLA          
1 60533U 24149BT  26201.16820023  .00006541  00000+0  38021-3 0  9992
2 60533  97.6728 283.7815 0001337 122.8476 237.2883 15.12431400105488
LEMUR-2-MARHISYAM       
1 60536U 24149BW  26201.22725342  .00005129  00000+0  30397-3 0  9999
2 60536  97.6871 284.3226 0002243  62.3352 297.8105 15.11832183105471
LEMUR-2-AHMED-ASRAR     
1 60576U 24149DN  26201.22866754  .00005901  00000+0  33460-3 0  9998
2 60576  97.6997 286.5472 0001664 183.3029 176.8191 15.13369685105567
LEMUR-2-LLOYD           
1 60577U 24149DP  26201.18565672  .00005536  00000+0  34655-3 0  9990
2 60577  97.6730 282.3442 0004237  58.5473 301.6170 15.09799638105373
LEMUR-2-SQUIRRELCOMM    
1 60578U 24149DQ  26201.18192765  .00003428  00000+0  23020-3 0  9992
2 60578  97.6698 281.9951 0004009 302.4234  57.6606 15.07474059105377
LEMUR-2-SIERRINI        
1 60579U 24149DR  26201.19082143  .00006216  00000+0  37010-3 0  9994
2 60579  97.6828 283.9422 0006059  78.0984 282.0925 15.11569293105449
LEMUR-2-WILSON          
1 62694U 25009CP  26201.48841327  .00001338  00000+0  12661-3 0  9994
2 62694  97.7016 279.3692 0001627 292.9678  67.1371 14.95287872 82330
LEMUR-2-STAR-FOX        
1 62696U 25009CR  26201.45336721  .00004276  00000+0  32330-3 0  9999
2 62696  97.6899 282.8228 0001637  21.3130 338.8163 15.02880549 82552
LEMUR-2-ARIANNA         
1 62699U 25009CU  26201.18550314  .00004371  00000+0  33038-3 0  9990
2 62699  97.6839 282.3053 0001963  31.8397 328.2946 15.02882036 82514
LEMUR-2-ALISIA          
1 62706U 25009DB  26201.22333086  .00004005  00000+0  30040-3 0  9993
2 62706  97.6960 283.1779 0004860 115.6171 244.5557 15.03216172105126
