OBJECT_NAME,OBJECT_ID,EPOCH,MEAN_MOTION,ECCENTRICITY,INCLINATION,RA_OF_ASC_NODE,ARG_OF_PERICENTER,MEAN_ANOMALY,EPHEMERIS_TYPE,CLASSIFICATION_TYPE,NORAD_CAT_ID,ELEMENT_SET_NO,REV_AT_EPOCH,BSTAR,MEAN_MOTION_DOT,MEAN_MOTION_DDOT
LEMUR-2-GREENBERG,2017-042N,2026-07-19T22:40:49.332288,15.32243019,.00074481,97.3842,21.4445,239.5677,120.4829,0,U,42837,999,49340,.30659889E-3,.9476E-4,0
LEMUR-2-ANDIS,2017-042P,2026-07-20T00:38:02.866848,15.36045973,.00074525,97.3691,21.8287,238.1835,121.8684,0,U,42838,999,49349,.35312306E-3,.12331E-3,0
LEMUR-2-EMBRIONOVIS,2023-084AQ,2026-07-20T09:12:56.519136,15.38313202,.00087238,97.6331,346.8847,187.4663,172.6453,0,U,56970,999,17278,.21304571E-3,.7966E-4,0
LEMUR-2-DEVERILL-M-T,2023-100F,2026-07-20T13:18:48.914784,15.41255376,.000478,99.4446,249.9928,274.4220,85.6474,0,U,57391,999,16638,.40191E-3,.16616E-3,0
LEMUR-2-NIMBUS2000,2024-022A,2026-07-20T07:59:18.248640,15.41247209,.0008203,97.4083,51.7757,10.9156,349.2267,0,U,58899,999,13737,.30980263E-3,.12813E-3,0
LEMUR-2-VALHALLA,2024-022B,2026-07-20T03:28:48.441504,15.40578281,.00087005,97.4081,51.5501,7.0064,353.1302,0,U,58900,999,13734,.21984998E-3,.8865E-4,0
LEMUR-2-CAEL,2024-022E,2026-07-20T03:01:44.537952,15.41954913,.00066356,97.4057,52.5269,350.9129,9.1997,0,U,58903,999,13741,.23614378E-3,.9971E-4,0
LEMUR-2-JOHNNYTRUONG,2024-043BA,2026-07-20T09:42:41.761728,15.62840820,.00037677,97.5401,355.2329,77.9959,282.1721,0,U,59146,999,13322,.31377639E-3,.28208E-3,0
LEMUR-2-TOMATOKECHUP,2024-149D,2026-07-20T04:39:12.570336,15.36643654,.00034332,97.3786,283.3381,112.8522,247.3085,0,U,60471,999,10723,.17624334E-3,.6224E-4,0
LEMUR-2-STELLA,2024-149BT,2026-07-20T04:02:12.499872,15.12431400,.00013375,97.6728,283.7815,122.8476,237.2883,0,U,60533,999,10548,.38020904E-3,.6541E-4,0
LEMUR-2-MARHISYAM,2024-149BW,2026-07-20T05:27:14.695488,15.11832183,.00022436,97.6871,284.3226,62.3352,297.8105,0,U,60536,999,10547,.3039657E-3,.5129E-4,0
LEMUR-2-AHMED-ASRAR,2024-149DN,2026-07-20T05:29:16.875456,15.13369685,.00016646,97.6997,286.5472,183.3029,176.8191,0,U,60576,999,10556,.33459961E-3,.5901E-4,0
LEMUR-2-LLOYD,2024-149DP,2026-07-20T04:27:20.740608,15.09799638,.00042372,97.6730,282.3442,58.5473,301.6170,0,U,60577,999,10537,.34655099E-3,.5536E-4,0
LEMUR-2-SQUIRRELCOMM,2024-149DQ,2026-07-20T04:21:58.548960,15.07474059,.00040091,97.6698,281.9951,302.4234,57.6606,0,U,60578,999,10537,.23019896E-3,.3428E-4,0
LEMUR-2-SIERRINI,2024-149DR,2026-07-20T04:34:46.971552,15.11569293,.00060598,97.6828,283.9422,78.0984,282.0925,0,U,60579,999,10544,.37010447E-3,.6216E-4,0
LEMUR-2-WILSON,2025-009CP,2026-07-20T11:43:18.906528,14.95287872,.00016273,97.7016,279.3692,292.9678,67.1371,0,U,62694,999,8233,.12661035E-3,.1338E-4,0
LEMUR-2-STAR-FOX,2025-009CR,2026-07-20T10:52:50.926944,15.02880549,.00016377,97.6899,282.8228,21.3130,338.8163,0,U,62696,999,8255,.32329936E-3,.4276E-4,0
LEMUR-2-ARIANNA,2025-009CU,2026-07-20T04:27:07.471296,15.02882036,.00019638,97.6839,282.3053,31.8397,328.2946,0,U,62699,999,8251,.33038174E-3,.4371E-4,0
LEMUR-2-ALISIA,2025-009DB,2026-07-20T05:21:35.786304,15.03216172,.00048609,97.6960,283.1779,115.6171,244.5557,0,U,62706,999,10512,.30040418E-3,.4005E-4,0
